BEIDOU-3 M9 (C29)       
1 43245U 18029A   26063.24164854 -.00000059  00000+0  00000+0 0  9992
2 43245  54.2883 303.6197 0000903  20.1403 339.9215  1.86228183 53943
BEIDOU-3 M10 (C30)      
1 43246U 18029B   26063.17653141 -.00000059  00000+0  00000+0 0  9997
2 43246  54.2860 303.6493 0005102  23.7928 336.2892  1.86228884 53922
IRNSS-1I                
1 43286U 18035A   26063.09664075  .00000085  00000+0  00000+0 0  9995
2 43286  28.9289  75.8190 0019067 190.3573 345.5673  1.00277479 29027
COSMOS 2527 (756)       
1 43508U 18053A   26061.09309953  .00000036  00000+0  00000+0 0  9997
2 43508  65.5168  77.4788 0009594 245.0851 114.8694  2.13101983 59999
BEIDOU-2 IGSO-7 (C16)   
1 43539U 18057A   26056.73984515 -.00000161  00000+0  00000+0 0  9993
2 43539  55.1859 164.0342 0099962 236.5988 133.5173  1.00284731 28015
GSAT0221 (GALILEO 25)   
1 43564U 18060A   26059.54670036 -.00000105  00000+0  00000+0 0  9995
2 43564  57.2051 344.7173 0005804 306.7848  53.1689  1.70475369 47315
GSAT0222 (GALILEO 26)   
1 43565U 18060B   26055.66007047 -.00000092  00000+0  00000+0 0  9996
2 43565  57.2093 344.8256 0004435 285.4820  74.4799  1.70474973 47292
GSAT0219 (GALILEO 23)   
1 43566U 18060C   26053.53475141 -.00000082  00000+0  00000+0 0  9994
2 43566  57.2094 344.8846 0005774 308.6957  51.2673  1.70475208 47235
GSAT0220 (GALILEO 24)   
1 43567U 18060D   26058.44840234 -.00000102  00000+0  00000+0 0  9992
2 43567  57.2075 344.7516 0005301 308.5821  51.3768  1.70475159 47302
BEIDOU-3 M5 (C23)       
1 43581U 18062A   26063.40065140 -.00000006  00000+0  00000+0 0  9990
2 43581  54.0880 185.8661 0002132 310.1519  49.7918  1.86228677 51686
BEIDOU-3 M6 (C24)       
1 43582U 18062B   26062.72660318 -.00000014  00000+0  00000+0 0  9992
2 43582  54.0877 185.8781 0006255  44.1915 315.8167  1.86227526 51674
BEIDOU-3 M12 (C26)      
1 43602U 18067A   26061.59110086 -.00000026  00000+0  00000+0 0  9999
2 43602  54.1825 184.6546 0008588  39.8197 320.1981  1.86227627 51137
BEIDOU-3 M11 (C25)      
1 43603U 18067B   26063.33673824 -.00000006  00000+0  00000+0 0  9996
2 43603  54.1800 184.5593 0004986  34.4620 325.5344  1.86227059 51199
BEIDOU-3 M13 (C32)      
1 43622U 18072A   26063.29261670 -.00000025  00000+0  00000+0 0  9991
2 43622  56.5327  66.1196 0008901 307.6685  52.2751  1.86230786 50704
BEIDOU-3 M14 (C33)      
1 43623U 18072B   26061.01026698 -.00000006  00000+0  00000+0 0  9998
2 43623  56.5324  66.1890 0006344 328.5825  31.4150  1.86230813 50657
BEIDOU-3 M16 (C35)      
1 43647U 18078A   26061.16715456 -.00000048  00000+0  00000+0 0  9999
2 43647  54.1863 303.7392 0008434  30.8134 329.2965  1.86232266 50162
BEIDOU-3 M15 (C34)      
1 43648U 18078B   26062.37035185 -.00000055  00000+0  00000+0 0  9996
2 43648  54.1808 303.6975 0005342  38.8897 321.2084  1.86232017 50200
